{
  "type": "FeatureCollection",
  "features": [
    {
      "type": "Feature",
      "properties": {
        "norad_id": 54741,
        "name": "GALAXY 35 (G-35)",
        "group": "intelsat",
        "lat": 0.020715963240129455,
        "lon": 159.80596275882232,
        "alt_km": 35789.35232913569,
        "timestamp": "2025-12-10T11:33:53.059512+00:00",
        "meta_object_name": "GALAXY 35 (G-35)",
        "meta_object_id": "2022-170A",
        "meta_epoch": "2025-12-10T04:23:38.620032",
        "meta_mean_motion": 1.00271022,
        "meta_eccentricity": 0.0002613,
        "meta_inclination": 0.031,
        "meta_ra_of_asc_node": 99.3994,
        "meta_arg_of_pericenter": 166.4389,
        "meta_mean_anomaly": 146.1459,
        "meta_ephemeris_type": 0,
        "meta_classification_type": "U",
        "meta_norad_cat_id": 54741,
        "meta_element_set_no": 999,
        "meta_rev_at_epoch": 1099,
        "meta_bstar": 0,
        "meta_mean_motion_dot": -1.59e-06,
        "meta_mean_motion_ddot": 0,
        "tle_line1": "1 54741U 22170A   25344.18308588 -.00000159  00000+0  00000+0 0  9996",
        "tle_line2": "2 54741   0.0310  99.3994 0002613 166.4389 146.1459  1.00271022 10993"
      },
      "geometry": {
        "type": "Point",
        "coordinates": [
          159.80596275882232,
          0.020715963240129455
        ]
      }
    },
    {
      "type": "Feature",
      "properties": {
        "norad_id": 54742,
        "name": "GALAXY 36 (G-36)",
        "group": "intelsat",
        "lat": 0.01066947649312765,
        "lon": 163.9124532667504,
        "alt_km": 35787.762806422135,
        "timestamp": "2025-12-10T11:33:53.059523+00:00",
        "meta_object_name": "GALAXY 36 (G-36)",
        "meta_object_id": "2022-170B",
        "meta_epoch": "2025-12-10T04:23:38.620032",
        "meta_mean_motion": 1.00270678,
        "meta_eccentricity": 5.41e-05,
        "meta_inclination": 0.0119,
        "meta_ra_of_asc_node": 34.2059,
        "meta_arg_of_pericenter": 256.1943,
        "meta_mean_anomaly": 125.667,
        "meta_ephemeris_type": 0,
        "meta_classification_type": "U",
        "meta_norad_cat_id": 54742,
        "meta_element_set_no": 999,
        "meta_rev_at_epoch": 1087,
        "meta_bstar": 0,
        "meta_mean_motion_dot": -1.82e-06,
        "meta_mean_motion_ddot": 0,
        "tle_line1": "1 54742U 22170B   25344.18308588 -.00000182  00000+0  00000+0 0  9993",
        "tle_line2": "2 54742   0.0119  34.2059 0000541 256.1943 125.6670  1.00270678 10872"
      },
      "geometry": {
        "type": "Point",
        "coordinates": [
          163.9124532667504,
          0.01066947649312765
        ]
      }
    },
    {
      "type": "Feature",
      "properties": {
        "norad_id": 57493,
        "name": "GALAXY 37 (G-37)",
        "group": "intelsat",
        "lat": 0.01963362901118746,
        "lon": 125.9114864647823,
        "alt_km": 35793.3400847032,
        "timestamp": "2025-12-10T11:33:53.059534+00:00",
        "meta_object_name": "GALAXY 37 (G-37)",
        "meta_object_id": "2023-112A",
        "meta_epoch": "2025-12-10T01:35:38.736384",
        "meta_mean_motion": 1.00271897,
        "meta_eccentricity": 0.0002305,
        "meta_inclination": 0.0105,
        "meta_ra_of_asc_node": 352.6249,
        "meta_arg_of_pericenter": 271.941,
        "meta_mean_anomaly": 71.3969,
        "meta_ephemeris_type": 0,
        "meta_classification_type": "U",
        "meta_norad_cat_id": 57493,
        "meta_element_set_no": 999,
        "meta_rev_at_epoch": 864,
        "meta_bstar": 0,
        "meta_mean_motion_dot": 5.1e-07,
        "meta_mean_motion_ddot": 0,
        "tle_line1": "1 57493U 23112A   25344.06642056  .00000051  00000+0  00000+0 0  9998",
        "tle_line2": "2 57493   0.0105 352.6249 0002305 271.9410  71.3969  1.00271897  8649"
      },
      "geometry": {
        "type": "Point",
        "coordinates": [
          125.9114864647823,
          0.01963362901118746
        ]
      }
    }
  ]
}